IRIDIUM 171             
1 43929U 19002H   25298.46003368 -.00000057  00000+0 -27498-4 0  9992
2 43929  86.3931  91.9861 0001686  91.9650 268.1739 14.34216878355311
IRIDIUM 170             
1 43930U 19002J   25298.47266139  .00000709  00000+0  10861-3 0  9999
2 43930  86.6048  91.7050 0002209  90.5815 269.5655 14.72243865364728
IRIDIUM 167             
1 43931U 19002K   25298.45369097 -.00000067  00000+0 -30978-4 0  9996
2 43931  86.3924  91.7286 0001622  84.3208 275.8173 14.34216620355312
IRIDIUM 181             
1 56726U 23068S   25298.35725428  .00000497  00000+0  14161-3 0  9992
2 56726  86.4530 154.9312 0001763  99.5306 260.6094 14.43315961128564
IRIDIUM 177             
1 56727U 23068T   25298.47460571  .00002339  00000+0  30433-3 0  9998
2 56727  86.1940  80.2512 0002272  86.5553 273.5928 14.80225764131640
IRIDIUM 174             
1 56728U 23068U   25298.46032781  .00000754  00000+0  11567-3 0  9992
2 56728  86.6057  91.8343 0002807  86.8906 273.2632 14.72265295131489
IRIDIUM 178             
1 56729U 23068V   25298.46369426  .00000002  00000+0 -32589-5 0  9998
2 56729  86.6516 123.4749 0001837  82.6313 277.5117 14.80236023131649
IRIDIUM 179             
1 56730U 23068W   25298.52593919  .00000612  00000+0  77160-4 0  9992
2 56730  86.6766 131.7237 0001600  78.3456 281.7945 14.80236355131655
